{
  "type": "FeatureCollection",
  "features": [
    {
      "type": "Feature",
      "properties": {
        "norad_id": 15362,
        "name": "NOVA 3",
        "group": "nnss",
        "lat": -23.223592089477116,
        "lon": 80.75230684426161,
        "alt_km": 1162.6948446362867,
        "timestamp": "2025-12-26T19:22:39.175374+00:00",
        "meta_object_name": "NOVA 3",
        "meta_object_id": "1984-110A",
        "meta_epoch": "2025-12-26T12:17:22.808256",
        "meta_mean_motion": 13.23046399,
        "meta_eccentricity": 0.0029843,
        "meta_inclination": 90.1217,
        "meta_ra_of_asc_node": 80.6966,
        "meta_arg_of_pericenter": 292.1662,
        "meta_mean_anomaly": 78.6503,
        "meta_ephemeris_type": 0,
        "meta_classification_type": "U",
        "meta_norad_cat_id": 15362,
        "meta_element_set_no": 999,
        "meta_rev_at_epoch": 98881,
        "meta_bstar": 0.00016271828,
        "meta_mean_motion_dot": 7.7e-07,
        "meta_mean_motion_ddot": 0,
        "tle_line1": "1 15362U 84110A   25360.51206954  .00000077  00000+0  16272-3 0  9993",
        "tle_line2": "2 15362  90.1217  80.6966 0029843 292.1662  78.6503 13.23046399988811"
      },
      "geometry": {
        "type": "Point",
        "coordinates": [
          80.75230684426161,
          -23.223592089477116
        ]
      }
    },
    {
      "type": "Feature",
      "properties": {
        "norad_id": 15935,
        "name": "OSCAR 30",
        "group": "nnss",
        "lat": -4.987140614131814,
        "lon": 100.09145146661547,
        "alt_km": 1043.9131696892018,
        "timestamp": "2025-12-26T19:22:39.175385+00:00",
        "meta_object_name": "OSCAR 30",
        "meta_object_id": "1985-066A",
        "meta_epoch": "2025-12-26T12:16:16.519584",
        "meta_mean_motion": 13.36080624,
        "meta_eccentricity": 0.01687622,
        "meta_inclination": 90.1653,
        "meta_ra_of_asc_node": 100.0722,
        "meta_arg_of_pericenter": 45.4025,
        "meta_mean_anomaly": 327.8317,
        "meta_ephemeris_type": 0,
        "meta_classification_type": "U",
        "meta_norad_cat_id": 15935,
        "meta_element_set_no": 999,
        "meta_rev_at_epoch": 96637,
        "meta_bstar": 0.00016463637,
        "meta_mean_motion_dot": 1.01e-06,
        "meta_mean_motion_ddot": 0,
        "tle_line1": "1 15935U 85066A   25360.51130231  .00000101  00000+0  16464-3 0  9995",
        "tle_line2": "2 15935  90.1653 100.0722 0168762  45.4025 327.8317 13.36080624966376"
      },
      "geometry": {
        "type": "Point",
        "coordinates": [
          100.09145146661547,
          -4.987140614131814
        ]
      }
    },
    {
      "type": "Feature",
      "properties": {
        "norad_id": 15936,
        "name": "OSCAR 24",
        "group": "nnss",
        "lat": 65.13721915300268,
        "lon": 92.1674471152288,
        "alt_km": 994.4021955455646,
        "timestamp": "2025-12-26T19:22:39.175395+00:00",
        "meta_object_name": "OSCAR 24",
        "meta_object_id": "1985-066B",
        "meta_epoch": "2025-12-26T11:55:31.117152",
        "meta_mean_motion": 13.35937803,
        "meta_eccentricity": 0.01699445,
        "meta_inclination": 90.1791,
        "meta_ra_of_asc_node": 92.5487,
        "meta_arg_of_pericenter": 51.8962,
        "meta_mean_anomaly": 320.3324,
        "meta_ephemeris_type": 0,
        "meta_classification_type": "U",
        "meta_norad_cat_id": 15936,
        "meta_element_set_no": 999,
        "meta_rev_at_epoch": 96827,
        "meta_bstar": 0.00014615642,
        "meta_mean_motion_dot": 9.1e-07,
        "meta_mean_motion_ddot": 0,
        "tle_line1": "1 15936U 85066B   25360.49688793  .00000091  00000+0  14616-3 0  9999",
        "tle_line2": "2 15936  90.1791  92.5487 0169944  51.8962 320.3324 13.35937803968273"
      },
      "geometry": {
        "type": "Point",
        "coordinates": [
          92.1674471152288,
          65.13721915300268
        ]
      }
    },
    {
      "type": "Feature",
      "properties": {
        "norad_id": 17070,
        "name": "POLAR BEAR",
        "group": "nnss",
        "lat": 89.07308765862508,
        "lon": -152.36292764676006,
        "alt_km": 943.4128392735365,
        "timestamp": "2025-12-26T19:22:39.175406+00:00",
        "meta_object_name": "POLAR BEAR",
        "meta_object_id": "1986-088A",
        "meta_epoch": "2025-12-26T12:02:59.489088",
        "meta_mean_motion": 13.7525362,
        "meta_eccentricity": 0.00412658,
        "meta_inclination": 89.6169,
        "meta_ra_of_asc_node": 183.2226,
        "meta_arg_of_pericenter": 79.6962,
        "meta_mean_anomaly": 298.6828,
        "meta_ephemeris_type": 0,
        "meta_classification_type": "U",
        "meta_norad_cat_id": 17070,
        "meta_element_set_no": 999,
        "meta_rev_at_epoch": 96168,
        "meta_bstar": 0.00010681265,
        "meta_mean_motion_dot": 1.15e-06,
        "meta_mean_motion_ddot": 0,
        "tle_line1": "1 17070U 86088A   25360.50207742  .00000115  00000+0  10681-3 0  9993",
        "tle_line2": "2 17070  89.6169 183.2226 0041265  79.6962 298.6828 13.75253620961684"
      },
      "geometry": {
        "type": "Point",
        "coordinates": [
          -152.36292764676006,
          89.07308765862508
        ]
      }
    },
    {
      "type": "Feature",
      "properties": {
        "norad_id": 18361,
        "name": "OSCAR 27",
        "group": "nnss",
        "lat": -73.07650779730302,
        "lon": -101.43053696489135,
        "alt_km": 1070.7618657109415,
        "timestamp": "2025-12-26T19:22:39.175416+00:00",
        "meta_object_name": "OSCAR 27",
        "meta_object_id": "1987-080A",
        "meta_epoch": "2025-12-26T10:59:09.176640",
        "meta_mean_motion": 13.44909552,
        "meta_eccentricity": 0.01040736,
        "meta_inclination": 90.3736,
        "meta_ra_of_asc_node": 79.7851,
        "meta_arg_of_pericenter": 184.3557,
        "meta_mean_anomaly": 175.6697,
        "meta_ephemeris_type": 0,
        "meta_classification_type": "U",
        "meta_norad_cat_id": 18361,
        "meta_element_set_no": 999,
        "meta_rev_at_epoch": 87741,
        "meta_bstar": 0.00017188841,
        "meta_mean_motion_dot": 1.13e-06,
        "meta_mean_motion_ddot": 0,
        "tle_line1": "1 18361U 87080A   25360.45774510  .00000113  00000+0  17189-3 0  9994",
        "tle_line2": "2 18361  90.3736  79.7851 0104073 184.3557 175.6697 13.44909552877414"
      },
      "geometry": {
        "type": "Point",
        "coordinates": [
          -101.43053696489135,
          -73.07650779730302
        ]
      }
    },
    {
      "type": "Feature",
      "properties": {
        "norad_id": 18362,
        "name": "OSCAR 29",
        "group": "nnss",
        "lat": -61.682578680702335,
        "lon": -100.43768901138446,
        "alt_km": 1035.6436783015324,
        "timestamp": "2025-12-26T19:22:39.175426+00:00",
        "meta_object_name": "OSCAR 29",
        "meta_object_id": "1987-080B",
        "meta_epoch": "2025-12-26T11:05:26.932128",
        "meta_mean_motion": 13.44450985,
        "meta_eccentricity": 0.01048753,
        "meta_inclination": 90.3748,
        "meta_ra_of_asc_node": 80.2454,
        "meta_arg_of_pericenter": 207.4741,
        "meta_mean_anomaly": 163.2863,
        "meta_ephemeris_type": 0,
        "meta_classification_type": "U",
        "meta_norad_cat_id": 18362,
        "meta_element_set_no": 999,
        "meta_rev_at_epoch": 87694,
        "meta_bstar": 0.0001514268,
        "meta_mean_motion_dot": 9.9e-07,
        "meta_mean_motion_ddot": 0,
        "tle_line1": "1 18362U 87080B   25360.46211727  .00000099  00000+0  15143-3 0  9993",
        "tle_line2": "2 18362  90.3748  80.2454 0104875 207.4741 163.2863 13.44450985876942"
      },
      "geometry": {
        "type": "Point",
        "coordinates": [
          -100.43768901138446,
          -61.682578680702335
        ]
      }
    },
    {
      "type": "Feature",
      "properties": {
        "norad_id": 19070,
        "name": "OSCAR 23",
        "group": "nnss",
        "lat": -75.66328102312143,
        "lon": -164.42604130545868,
        "alt_km": 1220.3343117458426,
        "timestamp": "2025-12-26T19:22:39.175437+00:00",
        "meta_object_name": "OSCAR 23",
        "meta_object_id": "1988-033A",
        "meta_epoch": "2025-12-26T15:06:18.736128",
        "meta_mean_motion": 13.27789302,
        "meta_eccentricity": 0.01905928,
        "meta_inclination": 90.3203,
        "meta_ra_of_asc_node": 16.8225,
        "meta_arg_of_pericenter": 141.4067,
        "meta_mean_anomaly": 341.813,
        "meta_ephemeris_type": 0,
        "meta_classification_type": "U",
        "meta_norad_cat_id": 19070,
        "meta_element_set_no": 999,
        "meta_rev_at_epoch": 82437,
        "meta_bstar": 0.00012944345,
        "meta_mean_motion_dot": 7.4e-07,
        "meta_mean_motion_ddot": 0,
        "tle_line1": "1 19070U 88033A   25360.62938352  .00000074  00000+0  12944-3 0  9996",
        "tle_line2": "2 19070  90.3203  16.8225 0190592 141.4067 341.8130 13.27789302824375"
      },
      "geometry": {
        "type": "Point",
        "coordinates": [
          -164.42604130545868,
          -75.66328102312143
        ]
      }
    }
  ]
}